[{"OBJECT_NAME":"STARLINK-5670","OBJECT_ID":"2023-013L","EPOCH":"2026-03-09T01:40:48.302400","MEAN_MOTION":15.02534119,"ECCENTRICITY":0.00010549,"INCLINATION":43.003,"RA_OF_ASC_NODE":303.9234,"ARG_OF_PERICENTER":272.6238,"MEAN_ANOMALY":87.4484,"EPHEMERIS_TYPE":0,"CLASSIFICATION_TYPE":"U","NORAD_CAT_ID":55341,"ELEMENT_SET_NO":999,"REV_AT_EPOCH":17161,"BSTAR":-6.1967083e-5,"MEAN_MOTION_DOT":-1.04e-5,"MEAN_MOTION_DDOT":0},{"OBJECT_NAME":"CZ-4B DEB","OBJECT_ID":"1999-057KD","EPOCH":"2026-03-09T21:11:33.062784","MEAN_MOTION":14.92997204,"ECCENTRICITY":0.00562796,"INCLINATION":98.5504,"RA_OF_ASC_NODE":202.6828,"ARG_OF_PERICENTER":125.3801,"MEAN_ANOMALY":235.2692,"EPHEMERIS_TYPE":0,"CLASSIFICATION_TYPE":"U","NORAD_CAT_ID":26432,"ELEMENT_SET_NO":999,"REV_AT_EPOCH":35696,"BSTAR":0.0033240821,"MEAN_MOTION_DOT":0.00035726,"MEAN_MOTION_DDOT":0}]
